{"type": "FeatureCollection", "features": [ {"type": "Feature", "properties": {"norad_id": 37867, "name": "COSMOS 2476 (744)", "group": "gnss", "lat": -6.081078890765332, "lon": 76.43479917000417, "alt_km": 19161.524580814763, "timestamp": "2025-12-10T07:43:55.022067+00:00", "meta": {"OBJECT_NAME": "COSMOS 2476 (744)", "OBJECT_ID": "2011-064A", "EPOCH": "2025-12-09T09:41:55.720032", "MEAN_MOTION": 2.13101239, "ECCENTRICITY": 0.0023895, "INCLINATION": 65.1605, "RA_OF_ASC_NODE": 79.2843, "ARG_OF_PERICENTER": 233.5536, "MEAN_ANOMALY": 135.2332, "EPHEMERIS_TYPE": 0, "CLASSIFICATION_TYPE": "U", "NORAD_CAT_ID": 37867, "ELEMENT_SET_NO": 999, "REV_AT_EPOCH": 10972, "BSTAR": 0, "MEAN_MOTION_DOT": -1.4e-07, "MEAN_MOTION_DDOT": 0}, "tle": {"line1": "1 37867U 11064A   25343.40411713 -.00000014  00000+0  00000+0 0  9995", "line2": "2 37867  65.1605  79.2843 0023895 233.5536 135.2332  2.13101239109723"}}, "geometry": {"type": "Point", "coordinates": [76.43479917000417, -6.081078890765332]}}, {"type": "Feature", "properties": {"norad_id": 37868, "name": "COSMOS 2477 (745)", "group": "gnss", "lat": 5.598326572466438, "lon": -103.26082240098258, "alt_km": 19102.94281191361, "timestamp": "2025-12-10T07:43:55.022080+00:00", "meta": {"OBJECT_NAME": "COSMOS 2477 (745)", "OBJECT_ID": "2011-064B", "EPOCH": "2025-12-09T06:11:12.657696", "MEAN_MOTION": 2.13102656, "ECCENTRICITY": 0.0021072, "INCLINATION": 65.167, "RA_OF_ASC_NODE": 79.367, "ARG_OF_PERICENTER": 234.1716, "MEAN_ANOMALY": 203.2692, "EPHEMERIS_TYPE": 0, "CLASSIFICATION_TYPE": "U", "NORAD_CAT_ID": 37868, "ELEMENT_SET_NO": 999, "REV_AT_EPOCH": 10971, "BSTAR": 0, "MEAN_MOTION_DOT": -1.4e-07, "MEAN_MOTION_DDOT": 0}, "tle": {"line1": "1 37868U 11064B   25343.25778539 -.00000014  00000+0  00000+0 0  9991", "line2": "2 37868  65.1670  79.3670 0021072 234.1716 203.2692  2.13102656109715"}}, "geometry": {"type": "Point", "coordinates": [-103.26082240098258, 5.598326572466438]}}, {"type": "Feature", "properties": {"norad_id": 37869, "name": "COSMOS 2475 (743)", "group": "gnss", "lat": 44.27982509325811, "lon": -127.43381024973726, "alt_km": 19156.46348381976, "timestamp": "2025-12-10T07:43:55.022091+00:00", "meta": {"OBJECT_NAME": "COSMOS 2475 (743)", "OBJECT_ID": "2011-064C", "EPOCH": "2025-12-09T06:02:05.700768", "MEAN_MOTION": 2.13101306, "ECCENTRICITY": 0.0026081, "INCLINATION": 65.1742, "RA_OF_ASC_NODE": 79.3871, "ARG_OF_PERICENTER": 248.2695, "MEAN_ANOMALY": 140.2782, "EPHEMERIS_TYPE": 0, "CLASSIFICATION_TYPE": "U", "NORAD_CAT_ID": 37869, "ELEMENT_SET_NO": 999, "REV_AT_EPOCH": 10972, "BSTAR": 0, "MEAN_MOTION_DOT": -1.3e-07, "MEAN_MOTION_DDOT": 0}, "tle": {"line1": "1 37869U 11064C   25343.25145487 -.00000013  00000+0  00000+0 0  9991", "line2": "2 37869  65.1742  79.3871 0026081 248.2695 140.2782  2.13101306109728"}}, "geometry": {"type": "Point", "coordinates": [-127.43381024973726, 44.27982509325811]}}, {"type": "Feature", "properties": {"norad_id": 37948, "name": "BEIDOU-2 IGSO-5 (C10)", "group": "gnss", "lat": 10.95305383188277, "lon": -76.11957028797579, "alt_km": 36191.02442377798, "timestamp": "2025-12-10T07:43:55.022103+00:00", "meta": {"OBJECT_NAME": "BEIDOU-2 IGSO-5 (C10)", "OBJECT_ID": "2011-073A", "EPOCH": "2025-12-09T19:08:31.399296", "MEAN_MOTION": 1.00291503, "ECCENTRICITY": 0.0110301, "INCLINATION": 48.0257, "RA_OF_ASC_NODE": 273.8934, "ARG_OF_PERICENTER": 222.226, "MEAN_ANOMALY": 322.5967, "EPHEMERIS_TYPE": 0, "CLASSIFICATION_TYPE": "U", "NORAD_CAT_ID": 37948, "ELEMENT_SET_NO": 999, "REV_AT_EPOCH": 5123, "BSTAR": 0, "MEAN_MOTION_DOT": -2.09e-06, "MEAN_MOTION_DDOT": 0}, "tle": {"line1": "1 37948U 11073A   25343.79758564 -.00000209  00000+0  00000+0 0  9991", "line2": "2 37948  48.0257 273.8934 0110301 222.2260 322.5967  1.00291503 51233"}}, "geometry": {"type": "Point", "coordinates": [-76.11957028797579, 10.95305383188277]}}, {"type": "Feature", "properties": {"norad_id": 37951, "name": "LUCH 5A (SDCM/PRN 140)", "group": "gnss", "lat": -7.960057876049242, "lon": 2.546757229221838, "alt_km": 35793.37759594545, "timestamp": "2025-12-10T07:43:55.022115+00:00", "meta": {"OBJECT_NAME": "LUCH 5A (SDCM/PRN 140)", "OBJECT_ID": "2011-074B", "EPOCH": "2025-12-09T14:21:55.626336", "MEAN_MOTION": 1.00274304, "ECCENTRICITY": 0.0005724, "INCLINATION": 8.2722, "RA_OF_ASC_NODE": 76.6308, "ARG_OF_PERICENTER": 178.9683, "MEAN_ANOMALY": 205.5039, "EPHEMERIS_TYPE": 0, "CLASSIFICATION_TYPE": "U", "NORAD_CAT_ID": 37951, "ELEMENT_SET_NO": 999, "REV_AT_EPOCH": 5115, "BSTAR": 0, "MEAN_MOTION_DOT": -4.7e-07, "MEAN_MOTION_DDOT": 0}, "tle": {"line1": "1 37951U 11074B   25343.59856049 -.00000047  00000+0  00000+0 0  9991", "line2": "2 37951   8.2722  76.6308 0005724 178.9683 205.5039  1.00274304 51155"}}, "geometry": {"type": "Point", "coordinates": [2.546757229221838, -7.960057876049242]}}, {"type": "Feature", "properties": {"norad_id": 38091, "name": "BEIDOU-2 G5 (C05)", "group": "gnss", "lat": -0.19368259939121832, "lon": -106.06655932353829, "alt_km": 35746.525306586904, "timestamp": "2025-12-10T07:43:55.022127+00:00", "meta": {"OBJECT_NAME": "BEIDOU-2 G5 (C05)", "OBJECT_ID": "2012-008A", "EPOCH": "2025-12-09T18:59:24.770688", "MEAN_MOTION": 1.00274381, "ECCENTRICITY": 0.001255, "INCLINATION": 3.1019, "RA_OF_ASC_NODE": 70.7125, "ARG_OF_PERICENTER": 226.3781, "MEAN_ANOMALY": 125.2902, "EPHEMERIS_TYPE": 0, "CLASSIFICATION_TYPE": "U", "NORAD_CAT_ID": 38091, "ELEMENT_SET_NO": 999, "REV_AT_EPOCH": 5046, "BSTAR": 0, "MEAN_MOTION_DOT": 5.8e-07, "MEAN_MOTION_DDOT": 0}, "tle": {"line1": "1 38091U 12008A   25343.79125892  .00000058  00000+0  00000+0 0  9993", "line2": "2 38091   3.1019  70.7125 0012550 226.3781 125.2902  1.00274381 50463"}}, "geometry": {"type": "Point", "coordinates": [-106.06655932353829, -0.19368259939121832]}}, {"type": "Feature", "properties": {"norad_id": 38250, "name": "BEIDOU-2 M3 (C11)", "group": "gnss", "lat": 55.53911914134869, "lon": 50.89711711873593, "alt_km": 21590.129463301313, "timestamp": "2025-12-10T07:43:55.022147+00:00", "meta": {"OBJECT_NAME": "BEIDOU-2 M3 (C11)", "OBJECT_ID": "2012-018A", "EPOCH": "2025-12-09T02:31:53.071968", "MEAN_MOTION": 1.86229533, "ECCENTRICITY": 0.00244707, "INCLINATION": 55.9232, "RA_OF_ASC_NODE": 311.2798, "ARG_OF_PERICENTER": 273.7022, "MEAN_ANOMALY": 86.0063, "EPHEMERIS_TYPE": 0, "CLASSIFICATION_TYPE": "U", "NORAD_CAT_ID": 38250, "ELEMENT_SET_NO": 999, "REV_AT_EPOCH": 9240, "BSTAR": 0, "MEAN_MOTION_DOT": -7.5e-07, "MEAN_MOTION_DDOT": 0}, "tle": {"line1": "1 38250U 12018A   25343.10547537 -.00000075  00000+0  00000+0 0  9990", "line2": "2 38250  55.9232 311.2798 0024470 273.7022  86.0063  1.86229533 92404"}}, "geometry": {"type": "Point", "coordinates": [50.89711711873593, 55.53911914134869]}}, {"type": "Feature", "properties": {"norad_id": 38251, "name": "BEIDOU-2 M4 (C12)", "group": "gnss", "lat": 31.362880506290534, "lon": 106.00253249344195, "alt_km": 21555.73211026947, "timestamp": "2025-12-10T07:43:55.022159+00:00", "meta": {"OBJECT_NAME": "BEIDOU-2 M4 (C12)", "OBJECT_ID": "2012-018B", "EPOCH": "2025-12-09T00:54:02.015712", "MEAN_MOTION": 1.86229239, "ECCENTRICITY": 0.001562, "INCLINATION": 55.8247, "RA_OF_ASC_NODE": 310.5113, "ARG_OF_PERICENTER": 276.8164, "MEAN_ANOMALY": 82.9941, "EPHEMERIS_TYPE": 0, "CLASSIFICATION_TYPE": "U", "NORAD_CAT_ID": 38251, "ELEMENT_SET_NO": 999, "REV_AT_EPOCH": 9240, "BSTAR": 0, "MEAN_MOTION_DOT": -7.4e-07, "MEAN_MOTION_DDOT": 0}, "tle": {"line1": "1 38251U 12018B   25343.03752333 -.00000074  00000+0  00000+0 0  9994", "line2": "2 38251  55.8247 310.5113 0015620 276.8164  82.9941  1.86229239 92404"}}, "geometry": {"type": "Point", "coordinates": [106.00253249344195, 31.362880506290534]}}, {"type": "Feature", "properties": {"norad_id": 38652, "name": "SES-5 (EGNOS/PRN 136)", "group": "gnss", "lat": -0.06818192571915624, "lon": -159.7604583510019, "alt_km": 35780.895306706254, "timestamp": "2025-12-10T07:43:55.022171+00:00", "meta": {"OBJECT_NAME": "SES-5 (EGNOS/PRN 136)", "OBJECT_ID": "2012-036A", "EPOCH": "2025-12-09T13:35:37.563072", "MEAN_MOTION": 1.00271327, "ECCENTRICITY": 0.0002138, "INCLINATION": 0.0591, "RA_OF_ASC_NODE": 304.0485, "ARG_OF_PERICENTER": 310.5029, "MEAN_ANOMALY": 32.8946, "EPHEMERIS_TYPE": 0, "CLASSIFICATION_TYPE": "U", "NORAD_CAT_ID": 38652, "ELEMENT_SET_NO": 999, "REV_AT_EPOCH": 4256, "BSTAR": 0, "MEAN_MOTION_DOT": 3.6e-07, "MEAN_MOTION_DDOT": 0}, "tle": {"line1": "1 38652U 12036A   25343.56640698  .00000036  00000+0  00000+0 0  9994", "line2": "2 38652   0.0591 304.0485 0002138 310.5029  32.8946  1.00271327 42561"}}, "geometry": {"type": "Point", "coordinates": [-159.7604583510019, -0.06818192571915624]}}, {"type": "Feature", "properties": {"norad_id": 38775, "name": "BEIDOU-2 M6 (C14)", "group": "gnss", "lat": -20.580199865002715, "lon": 54.70778903971459, "alt_km": 21500.46778112113, "timestamp": "2025-12-10T07:43:55.022183+00:00", "meta": {"OBJECT_NAME": "BEIDOU-2 M6 (C14)", "OBJECT_ID": "2012-050B", "EPOCH": "2025-12-09T06:50:59.454240", "MEAN_MOTION": 1.86230769, "ECCENTRICITY": 0.00110803, "INCLINATION": 56.3755, "RA_OF_ASC_NODE": 69.1821, "ARG_OF_PERICENTER": 345.0946, "MEAN_ANOMALY": 14.8952, "EPHEMERIS_TYPE": 0, "CLASSIFICATION_TYPE": "U", "NORAD_CAT_ID": 38775, "ELEMENT_SET_NO": 999, "REV_AT_EPOCH": 8977, "BSTAR": 0, "MEAN_MOTION_DOT": -4.8e-07, "MEAN_MOTION_DDOT": 0}, "tle": {"line1": "1 38775U 12050B   25343.28541035 -.00000048  00000+0  00000+0 0  9994", "line2": "2 38775  56.3755  69.1821 0011080 345.0946  14.8952  1.86230769 89773"}}, "geometry": {"type": "Point", "coordinates": [54.70778903971459, -20.580199865002715]}}]}